{
    "links": {
        "self": "http://www.neowsapp.com/rest/v1/neo/3989299?api_key=iIulBulltgU6a56xZRHN4H3l9WmuAYTsLGpBGhQ2"
    },
    "id": "3989299",
    "neo_reference_id": "3989299",
    "name": "(2020 BN13)",
    "designation": "2020 BN13",
    "nasa_jpl_url": "http://ssd.jpl.nasa.gov/sbdb.cgi?sstr=3989299",
    "absolute_magnitude_h": 26.091,
    "estimated_diameter": {
        "kilometers": {
            "estimated_diameter_min": 0.0160825525,
            "estimated_diameter_max": 0.0359616805
        },
        "meters": {
            "estimated_diameter_min": 16.0825524562,
            "estimated_diameter_max": 35.9616805438
        },
        "miles": {
            "estimated_diameter_min": 0.0099932317,
            "estimated_diameter_max": 0.0223455454
        },
        "feet": {
            "estimated_diameter_min": 52.7642814005,
            "estimated_diameter_max": 117.9845199954
        }
    },
    "is_potentially_hazardous_asteroid": false,
    "close_approach_data": [
        {
            "close_approach_date": "2020-01-31",
            "close_approach_date_full": "2020-Jan-31 04:03",
            "epoch_date_close_approach": 1580443380000,
            "relative_velocity": {
                "kilometers_per_second": "5.8127964711",
                "kilometers_per_hour": "20926.0672960163",
                "miles_per_hour": "13002.6444262386"
            },
            "miss_distance": {
                "astronomical": "0.0519329639",
                "lunar": "20.2019229571",
                "kilometers": "7769060.782226893",
                "miles": "4827470.5172934034"
            },
            "orbiting_body": "Earth"
        },
        {
            "close_approach_date": "2020-05-28",
            "close_approach_date_full": "2020-May-28 07:23",
            "epoch_date_close_approach": 1590650580000,
            "relative_velocity": {
                "kilometers_per_second": "3.7150424918",
                "kilometers_per_hour": "13374.1529704381",
                "miles_per_hour": "8310.1785498814"
            },
            "miss_distance": {
                "astronomical": "0.2122948337",
                "lunar": "82.5826903093",
                "kilometers": "31758854.933524219",
                "miles": "19734037.3762194622"
            },
            "orbiting_body": "Earth"
        },
        {
            "close_approach_date": "2190-08-02",
            "close_approach_date_full": "2190-Aug-02 06:44",
            "epoch_date_close_approach": 6961013040000,
            "relative_velocity": {
                "kilometers_per_second": "7.8112155575",
                "kilometers_per_hour": "28120.3760070682",
                "miles_per_hour": "17472.9080806141"
            },
            "miss_distance": {
                "astronomical": "0.4602485502",
                "lunar": "179.0366860278",
                "kilometers": "68852202.780508074",
                "miles": "42782774.9441724612"
            },
            "orbiting_body": "Earth"
        },
        {
            "close_approach_date": "2197-01-10",
            "close_approach_date_full": "2197-Jan-10 22:44",
            "epoch_date_close_approach": 7164369840000,
            "relative_velocity": {
                "kilometers_per_second": "15.7204340362",
                "kilometers_per_hour": "56593.5625301537",
                "miles_per_hour": "35165.0388954724"
            },
            "miss_distance": {
                "astronomical": "0.3403113736",
                "lunar": "132.3811243304",
                "kilometers": "50909856.627334232",
                "miles": "31633918.0239551216"
            },
            "orbiting_body": "Earth"
        }
    ],
    "orbital_data": {
        "orbit_id": "1",
        "orbit_determination_date": "2020-01-30 16:42:42",
        "first_observation_date": "2020-01-29",
        "last_observation_date": "2020-01-30",
        "data_arc_in_days": 1,
        "observations_used": 16,
        "orbit_uncertainty": "8",
        "minimum_orbit_intersection": ".040475",
        "jupiter_tisserand_invariant": "5.097",
        "epoch_osculation": "2458877.5",
        "eccentricity": ".2374538235383625",
        "semi_major_axis": "1.253105804070871",
        "inclination": "7.779092453760505",
        "ascending_node_longitude": "294.217938486552",
        "orbital_period": "512.3656890209037",
        "perihelion_distance": ".9555510395961287",
        "perihelion_argument": "237.6104546558923",
        "aphelion_distance": "1.550660568545614",
        "perihelion_time": "2458917.745645979611",
        "mean_anomaly": "331.7224770059323",
        "mean_motion": ".7026231609847563",
        "equinox": "J2000",
        "orbit_class": {
            "orbit_class_type": "APO",
            "orbit_class_description": "Near-Earth asteroid orbits which cross the Earth’s orbit similar to that of 1862 Apollo",
            "orbit_class_range": "a (semi-major axis) > 1.0 AU; q (perihelion) < 1.017 AU"
        }
    },
    "is_sentry_object": false
}